[{"OBJECT_NAME":"OBJECT F","OBJECT_ID":"2024-153F","EPOCH":"2026-03-09T23:13:25.507776","MEAN_MOTION":15.23037528,"ECCENTRICITY":0.00053669,"INCLINATION":97.6558,"RA_OF_ASC_NODE":203.2719,"ARG_OF_PERICENTER":225.0651,"MEAN_ANOMALY":135.0151,"EPHEMERIS_TYPE":0,"CLASSIFICATION_TYPE":"U","NORAD_CAT_ID":60750,"ELEMENT_SET_NO":999,"REV_AT_EPOCH":8468,"BSTAR":0.00084475391,"MEAN_MOTION_DOT":0.00019856,"MEAN_MOTION_DDOT":0},{"OBJECT_NAME":"SUPERVIEW NEO-1 04","OBJECT_ID":"2025-040B","EPOCH":"2026-03-06T19:28:03.599328","MEAN_MOTION":15.21660643,"ECCENTRICITY":0.00018105,"INCLINATION":97.3404,"RA_OF_ASC_NODE":182.7609,"ARG_OF_PERICENTER":125.6161,"MEAN_ANOMALY":234.5244,"EPHEMERIS_TYPE":0,"CLASSIFICATION_TYPE":"U","NORAD_CAT_ID":63126,"ELEMENT_SET_NO":999,"REV_AT_EPOCH":5662,"BSTAR":0.00040582804,"MEAN_MOTION_DOT":9.111e-5,"MEAN_MOTION_DDOT":0}]
